[{"OBJECT_NAME":"COSMOS 2251 DEB","OBJECT_ID":"1993-036FR","EPOCH":"2026-03-06T15:12:20.750400","MEAN_MOTION":14.60726759,"ECCENTRICITY":0.0075789,"INCLINATION":74.0706,"RA_OF_ASC_NODE":200.0396,"ARG_OF_PERICENTER":224.3344,"MEAN_ANOMALY":150.79,"EPHEMERIS_TYPE":0,"CLASSIFICATION_TYPE":"U","NORAD_CAT_ID":33982,"ELEMENT_SET_NO":999,"REV_AT_EPOCH":90384,"BSTAR":0.00087921795,"MEAN_MOTION_DOT":4.435e-5,"MEAN_MOTION_DDOT":0},{"OBJECT_NAME":"COSMOS 2251 DEB","OBJECT_ID":"1993-036FS","EPOCH":"2026-03-06T13:00:43.369632","MEAN_MOTION":14.51060559,"ECCENTRICITY":0.00189746,"INCLINATION":74.0534,"RA_OF_ASC_NODE":349.5948,"ARG_OF_PERICENTER":70.7973,"MEAN_ANOMALY":101.8174,"EPHEMERIS_TYPE":0,"CLASSIFICATION_TYPE":"U","NORAD_CAT_ID":33983,"ELEMENT_SET_NO":999,"REV_AT_EPOCH":89844,"BSTAR":0.00065590599,"MEAN_MOTION_DOT":2.577e-5,"MEAN_MOTION_DDOT":0},{"OBJECT_NAME":"COSMOS 2251 DEB","OBJECT_ID":"1993-036FT","EPOCH":"2026-03-06T09:48:57.638880","MEAN_MOTION":14.67276964,"ECCENTRICITY":0.00240724,"INCLINATION":74.0093,"RA_OF_ASC_NODE":185.4244,"ARG_OF_PERICENTER":353.5685,"MEAN_ANOMALY":69.114,"EPHEMERIS_TYPE":0,"CLASSIFICATION_TYPE":"U","NORAD_CAT_ID":33984,"ELEMENT_SET_NO":999,"REV_AT_EPOCH":90293,"BSTAR":0.0010649069,"MEAN_MOTION_DOT":6.004e-5,"MEAN_MOTION_DDOT":0},{"OBJECT_NAME":"COSMOS 2251 DEB","OBJECT_ID":"1993-036FV","EPOCH":"2026-03-06T16:04:48.402624","MEAN_MOTION":14.43690666,"ECCENTRICITY":0.00414728,"INCLINATION":74.0365,"RA_OF_ASC_NODE":146.7203,"ARG_OF_PERICENTER":204.548,"MEAN_ANOMALY":306.9596,"EPHEMERIS_TYPE":0,"CLASSIFICATION_TYPE":"U","NORAD_CAT_ID":33986,"ELEMENT_SET_NO":999,"REV_AT_EPOCH":89239,"BSTAR":0.00082892638,"MEAN_MOTION_DOT":2.819e-5,"MEAN_MOTION_DDOT":0},{"OBJECT_NAME":"COSMOS 2251 DEB","OBJECT_ID":"1993-036FZ","EPOCH":"2026-03-06T14:11:42.080064","MEAN_MOTION":13.50144002,"ECCENTRICITY":0.04048941,"INCLINATION":73.9284,"RA_OF_ASC_NODE":151.369,"ARG_OF_PERICENTER":156.4324,"MEAN_ANOMALY":275.4151,"EPHEMERIS_TYPE":0,"CLASSIFICATION_TYPE":"U","NORAD_CAT_ID":33990,"ELEMENT_SET_NO":999,"REV_AT_EPOCH":83861,"BSTAR":0.00094076765,"MEAN_MOTION_DOT":9.79e-6,"MEAN_MOTION_DDOT":0},{"OBJECT_NAME":"COSMOS 2251 DEB","OBJECT_ID":"1993-036GB","EPOCH":"2026-03-06T13:44:31.688736","MEAN_MOTION":14.67066773,"ECCENTRICITY":0.00548023,"INCLINATION":74.0244,"RA_OF_ASC_NODE":175.9276,"ARG_OF_PERICENTER":273.5323,"MEAN_ANOMALY":104.0715,"EPHEMERIS_TYPE":0,"CLASSIFICATION_TYPE":"U","NORAD_CAT_ID":33992,"ELEMENT_SET_NO":999,"REV_AT_EPOCH":90354,"BSTAR":0.0010401073,"MEAN_MOTION_DOT":5.942e-5,"MEAN_MOTION_DDOT":0},{"OBJECT_NAME":"COSMOS 2251 DEB","OBJECT_ID":"1993-036GD","EPOCH":"2026-03-06T15:03:42.156000","MEAN_MOTION":14.41282062,"ECCENTRICITY":0.00225539,"INCLINATION":74.0438,"RA_OF_ASC_NODE":35.1596,"ARG_OF_PERICENTER":154.1694,"MEAN_ANOMALY":321.81,"EPHEMERIS_TYPE":0,"CLASSIFICATION_TYPE":"U","NORAD_CAT_ID":33994,"ELEMENT_SET_NO":999,"REV_AT_EPOCH":89628,"BSTAR":0.00013525874,"MEAN_MOTION_DOT":4.12e-6,"MEAN_MOTION_DDOT":0},{"OBJECT_NAME":"COSMOS 2251 DEB","OBJECT_ID":"1993-036GE","EPOCH":"2026-03-06T02:50:57.154848","MEAN_MOTION":14.35258067,"ECCENTRICITY":0.00603454,"INCLINATION":74.0634,"RA_OF_ASC_NODE":326.7572,"ARG_OF_PERICENTER":319.0465,"MEAN_ANOMALY":40.6163,"EPHEMERIS_TYPE":0,"CLASSIFICATION_TYPE":"U","NORAD_CAT_ID":33995,"ELEMENT_SET_NO":999,"REV_AT_EPOCH":88715,"BSTAR":0.00089791647,"MEAN_MOTION_DOT":2.599e-5,"MEAN_MOTION_DDOT":0},{"OBJECT_NAME":"COSMOS 2251 DEB","OBJECT_ID":"1993-036GJ","EPOCH":"2026-03-06T09:55:00.497280","MEAN_MOTION":14.85533157,"ECCENTRICITY":0.00469219,"INCLINATION":73.9165,"RA_OF_ASC_NODE":63.606,"ARG_OF_PERICENTER":295.6042,"MEAN_ANOMALY":64.0291,"EPHEMERIS_TYPE":0,"CLASSIFICATION_TYPE":"U","NORAD_CAT_ID":33999,"ELEMENT_SET_NO":999,"REV_AT_EPOCH":90492,"BSTAR":0.0017586581,"MEAN_MOTION_DOT":0.00015499,"MEAN_MOTION_DDOT":0},{"OBJECT_NAME":"COSMOS 2251 DEB","OBJECT_ID":"1993-036GL","EPOCH":"2026-03-06T14:52:56.843040","MEAN_MOTION":14.37208237,"ECCENTRICITY":0.00204367,"INCLINATION":74.0378,"RA_OF_ASC_NODE":127.3419,"ARG_OF_PERICENTER":196.0477,"MEAN_ANOMALY":316.5399,"EPHEMERIS_TYPE":0,"CLASSIFICATION_TYPE":"U","NORAD_CAT_ID":34001,"ELEMENT_SET_NO":999,"REV_AT_EPOCH":89351,"BSTAR":0.00018595883,"MEAN_MOTION_DOT":5.29e-6,"MEAN_MOTION_DDOT":0},{"OBJECT_NAME":"COSMOS 2251 DEB","OBJECT_ID":"1993-036GN","EPOCH":"2026-03-06T15:04:31.536192","MEAN_MOTION":13.84610759,"ECCENTRICITY":0.02786763,"INCLINATION":74.0776,"RA_OF_ASC_NODE":143.8912,"ARG_OF_PERICENTER":237.162,"MEAN_ANOMALY":120.2398,"EPHEMERIS_TYPE":0,"CLASSIFICATION_TYPE":"U","NORAD_CAT_ID":34003,"ELEMENT_SET_NO":999,"REV_AT_EPOCH":85586,"BSTAR":0.002362617,"MEAN_MOTION_DOT":3.564e-5,"MEAN_MOTION_DDOT":0},{"OBJECT_NAME":"COSMOS 2251 DEB","OBJECT_ID":"1993-036GP","EPOCH":"2026-03-06T14:11:22.242624","MEAN_MOTION":14.49928351,"ECCENTRICITY":0.00295908,"INCLINATION":74.0355,"RA_OF_ASC_NODE":155.7733,"ARG_OF_PERICENTER":154.64,"MEAN_ANOMALY":205.6221,"EPHEMERIS_TYPE":0,"CLASSIFICATION_TYPE":"U","NORAD_CAT_ID":34004,"ELEMENT_SET_NO":999,"REV_AT_EPOCH":89245,"BSTAR":0.0014202964,"MEAN_MOTION_DOT":5.5e-5,"MEAN_MOTION_DDOT":0},{"OBJECT_NAME":"COSMOS 2251 DEB","OBJECT_ID":"1993-036GQ","EPOCH":"2026-03-06T09:40:43.867200","MEAN_MOTION":14.4038147,"ECCENTRICITY":0.00200285,"INCLINATION":74.044,"RA_OF_ASC_NODE":59.0603,"ARG_OF_PERICENTER":163.4346,"MEAN_ANOMALY":347.2683,"EPHEMERIS_TYPE":0,"CLASSIFICATION_TYPE":"U","NORAD_CAT_ID":34005,"ELEMENT_SET_NO":999,"REV_AT_EPOCH":89583,"BSTAR":0.0001480921,"MEAN_MOTION_DOT":4.45e-6,"MEAN_MOTION_DDOT":0},{"OBJECT_NAME":"COSMOS 2251 DEB","OBJECT_ID":"1993-036GR","EPOCH":"2026-03-06T03:52:56.342208","MEAN_MOTION":15.03267688,"ECCENTRICITY":0.00113942,"INCLINATION":74.0526,"RA_OF_ASC_NODE":334.2376,"ARG_OF_PERICENTER":235.8257,"MEAN_ANOMALY":249.7311,"EPHEMERIS_TYPE":0,"CLASSIFICATION_TYPE":"U","NORAD_CAT_ID":34006,"ELEMENT_SET_NO":999,"REV_AT_EPOCH":89918,"BSTAR":0.0030520522,"MEAN_MOTION_DOT":0.00041633,"MEAN_MOTION_DDOT":0},{"OBJECT_NAME":"COSMOS 2251 DEB","OBJECT_ID":"1993-036GS","EPOCH":"2026-03-06T15:01:09.435360","MEAN_MOTION":14.65553356,"ECCENTRICITY":0.00475049,"INCLINATION":74.0197,"RA_OF_ASC_NODE":185.3182,"ARG_OF_PERICENTER":298.143,"MEAN_ANOMALY":61.4943,"EPHEMERIS_TYPE":0,"CLASSIFICATION_TYPE":"U","NORAD_CAT_ID":34007,"ELEMENT_SET_NO":999,"REV_AT_EPOCH":90308,"BSTAR":0.00099739212,"MEAN_MOTION_DOT":5.474e-5,"MEAN_MOTION_DDOT":0},{"OBJECT_NAME":"COSMOS 2251 DEB","OBJECT_ID":"1993-036GT","EPOCH":"2026-03-06T14:28:03.756000","MEAN_MOTION":14.33212355,"ECCENTRICITY":0.00229642,"INCLINATION":74.035,"RA_OF_ASC_NODE":177.2496,"ARG_OF_PERICENTER":157.6422,"MEAN_ANOMALY":213.2669,"EPHEMERIS_TYPE":0,"CLASSIFICATION_TYPE":"U","NORAD_CAT_ID":34008,"ELEMENT_SET_NO":999,"REV_AT_EPOCH":89166,"BSTAR":0.00016950436,"MEAN_MOTION_DOT":4.41e-6,"MEAN_MOTION_DDOT":0}]
