COSMOS 2251 DEB         
1 33982U 93036FR  26065.63357350  .00004435  00000+0  87922-3 0  9993
2 33982  74.0706 200.0396 0075789 224.3344 150.7900 14.60726759903842
COSMOS 2251 DEB         
1 33983U 93036FS  26065.54216863  .00002577  00000+0  65591-3 0  9990
2 33983  74.0534 349.5948 0018974  70.7973 101.8174 14.51060559898446
COSMOS 2251 DEB         
1 33984U 93036FT  26065.40900045  .00006004  00000+0  10649-2 0  9990
2 33984  74.0093 185.4244 0024072 353.5685  69.1140 14.67276964902936
COSMOS 2251 DEB         
1 33986U 93036FV  26065.67000466  .00002819  00000+0  82893-3 0  9990
2 33986  74.0365 146.7203 0041472 204.5480 306.9596 14.43690666892394
COSMOS 2251 DEB         
1 33990U 93036FZ  26065.59145926  .00000979  00000+0  94077-3 0  9999
2 33990  73.9284 151.3690 0404894 156.4324 275.4151 13.50144002838619
COSMOS 2251 DEB         
1 33992U 93036GB  26065.57258899  .00005942  00000+0  10401-2 0  9996
2 33992  74.0244 175.9276 0054802 273.5323 104.0715 14.67066773903546
COSMOS 2251 DEB         
1 33994U 93036GD  26065.62757125  .00000412  00000+0  13526-3 0  9999
2 33994  74.0438  35.1596 0022553 154.1694 321.8100 14.41282062896280
COSMOS 2251 DEB         
1 33995U 93036GE  26065.11871707  .00002599  00000+0  89792-3 0  9993
2 33995  74.0634 326.7572 0060345 319.0465  40.6163 14.35258067887153
COSMOS 2251 DEB         
1 33999U 93036GJ  26065.41320020  .00015499  00000+0  17587-2 0  9992
2 33999  73.9165  63.6060 0046921 295.6042  64.0291 14.85533157904925
COSMOS 2251 DEB         
1 34001U 93036GL  26065.62010235  .00000529  00000+0  18596-3 0  9994
2 34001  74.0378 127.3419 0020436 196.0477 316.5399 14.37208237893514
COSMOS 2251 DEB         
1 34003U 93036GN  26065.62814278  .00003564  00000+0  23626-2 0  9996
2 34003  74.0776 143.8912 0278676 237.1620 120.2398 13.84610759855869
COSMOS 2251 DEB         
1 34004U 93036GP  26065.59122966  .00005500  00000+0  14203-2 0  9992
2 34004  74.0355 155.7733 0029590 154.6400 205.6221 14.49928351892455
COSMOS 2251 DEB         
1 34005U 93036GQ  26065.40328550  .00000445  00000+0  14809-3 0  9996
2 34005  74.0440  59.0603 0020028 163.4346 347.2683 14.40381470895833
COSMOS 2251 DEB         
1 34006U 93036GR  26065.16176322  .00041633  00000+0  30521-2 0  9990
2 34006  74.0526 334.2376 0011394 235.8257 249.7311 15.03267688899185
COSMOS 2251 DEB         
1 34007U 93036GS  26065.62580365  .00005474  00000+0  99739-3 0  9998
2 34007  74.0197 185.3182 0047504 298.1430  61.4943 14.65553356903089
COSMOS 2251 DEB         
1 34008U 93036GT  26065.60282125  .00000441  00000+0  16950-3 0  9993
2 34008  74.0350 177.2496 0022964 157.6422 213.2669 14.33212355891660
